0 SL-12 R/B(2)
1 21858U 92005F   13279.66335800  .00000024  00000-0  00000+0 0   517
2 21858 064.1286 229.4504 0003344 052.1844 003.7617 02.13216596157582
0 SL-12 R/B(2)
1 21858U 92005F   13282.16472166  .00000031  00000-0  00000+0 0   522
2 21858 064.1279 229.3636 0003400 052.7179 123.2232 02.13216660157638
0 SL-12 R/B(2)
1 21858U 92005F   13283.34257557  .00000000  00000-0  10000-3 0   541
2 21858 064.1286 229.3221 0003565 052.4324 307.6047 02.13218832157665
0 SL-12 R/B(2)
1 21858U 92005F   13285.85388765 -.00000008  00000-0  00000+0 0   538
2 21858 064.1270 229.2357 0003390 053.1344 074.5346 02.13216792157714
0 SL-12 R/B(2)
1 21858U 92005F   13289.76736186 -.00000040  00000-0  00000+0 0   543
2 21858 064.1262 229.1001 0003420 052.8795 198.6948 02.13216848157796
0 SL-12 R/B(2)
1 21858U 92005F   13293.00498934 -.00000014  00000-0  00000+0 0   553
2 21858 064.1255 228.9879 0003497 052.8413 163.8738 02.13216824157862
